NORAD_CAT_ID,OBJECT_NAME,OBJECT_TYPE,EPOCH,MEAN_MOTION,ECCENTRICITY,INCLINATION,RA_OF_ASC_NODE,ARG_OF_PERICENTER,MEAN_ANOMALY,BSTAR,MEAN_MOTION_DOT,MEAN_MOTION_DDOT,TLE_LINE0,TLE_LINE1,TLE_LINE2,SEMIMAJOR_AXIS,PERIOD,APOGEE,PERIGEE,DECAYED
49760.0,STARLINK-3199,PAYLOAD,2023-07-05 19:11:27,15.08841111,9.65e-05,53.2162,209.0392,85.3362,274.774,5.067e-05,5.19e-06,0.0,0 STARLINK-3199,1 49760U 21115AN  23186.79962619  .00000519  00000-0  50670-4 0  9992,2 49760  53.2162 209.0392 0000965  85.3362 274.7740 15.08841111 89164,6917.877,95.437,540.41,539.074,0.0
49760.0,STARLINK-3199,PAYLOAD,2023-07-07 06:09:56,15.08842823,0.0001016,53.2156,202.4982,81.6215,278.4892,7.1474e-05,8.5e-06,0.0,0 STARLINK-3199,1 49760U 21115AN  23188.25690645  .00000850  00000-0  71474-4 0  9995,2 49760  53.2156 202.4982 0001016  81.6215 278.4892 15.08842823 89387,6917.872,95.437,540.44,539.034,0.0
49760.0,STARLINK-3199,PAYLOAD,2023-07-08 07:36:07,15.08838631,0.0001052,53.2156,197.7403,80.8187,279.2924,6.1647e-05,6.93e-06,0.0,0 STARLINK-3199,1 49760U 21115AN  23189.31674993  .00000693  00000-0  61647-4 0  9997,2 49760  53.2156 197.7403 0001052  80.8187 279.2924 15.08838631 89545,6917.885,95.438,540.477,539.022,0.0
49760.0,STARLINK-3199,PAYLOAD,2023-07-09 10:37:40,15.08836281,0.0001087,53.2158,192.6852,78.9028,281.2087,7.8742e-06,-1.62e-06,0.0,0 STARLINK-3199,1 49760U 21115AN  23190.44283477 -.00000162  00000-0  78742-5 0  9993,2 49760  53.2158 192.6852 0001087  78.9028 281.2087 15.08836281 89710,6917.892,95.438,540.509,539.005,0.0
49760.0,STARLINK-3199,PAYLOAD,2023-07-10 16:50:00,15.08837259,0.0001079,53.2158,187.0353,80.5665,279.5449,5.8623e-05,6.45e-06,0.0,0 STARLINK-3199,1 49760U 21115AN  23191.70139514  .00000645  00000-0  58623-4 0  9995,2 49760  53.2158 187.0353 0001079  80.5665 279.5449 15.08837259 89900,6917.889,95.438,540.5,539.007,0.0
49760.0,STARLINK-3199,PAYLOAD,2023-07-11 23:02:20,15.08840733,0.0001118,53.2161,181.3851,82.2592,277.8527,6.4041e-05,7.32e-06,0.0,0 STARLINK-3199,1 49760U 21115AN  23192.95995409  .00000732  00000-0  64041-4 0  9994,2 49760  53.2161 181.3851 0001118  82.2592 277.8527 15.08840733 90097,6917.878,95.438,540.517,538.97,0.0
49760.0,STARLINK-3199,PAYLOAD,2023-07-13 16:22:21,15.08840482,0.0001132,53.2162,173.6526,88.376,271.7362,-1.1356e-06,-3.06e-06,0.0,0 STARLINK-3199,1 49760U 21115AN  23194.68219406 -.00000306  00000-0 -11356-5 0  9993,2 49760  53.2162 173.6526 0001132  88.3760 271.7362 15.08840482 90351,6917.879,95.438,540.527,538.961,0.0
49760.0,STARLINK-3199,PAYLOAD,2023-07-15 04:56:13,15.08843883,0.0001142,53.2164,166.8134,92.2396,267.8727,6.5318e-05,7.52e-06,0.0,0 STARLINK-3199,1 49760U 21115AN  23196.20571093  .00000752  00000-0  65318-4 0  9995,2 49760  53.2164 166.8134 0001142  92.2396 267.8727 15.08843883 90586,6917.869,95.437,540.524,538.943,0.0
49760.0,STARLINK-3199,PAYLOAD,2023-07-15 14:28:32,15.08837496,0.0001138,53.2164,165.0294,91.1588,268.9535,9.5124e-06,-1.36e-06,0.0,0 STARLINK-3199,1 49760U 21115AN  23196.60315667 -.00000136  00000-0  95124-5 0  9998,2 49760  53.2164 165.0294 0001138  91.1588 268.9535 15.08837496 90649,6917.888,95.438,540.54,538.966,0.0
49760.0,STARLINK-3199,PAYLOAD,2023-07-16 20:40:52,15.08834311,0.0001101,53.2162,159.3809,94.2912,265.8206,-1.23e-05,-4.83e-06,0.0,0 STARLINK-3199,1 49760U 21115AN  23197.86172424 -.00000483  00000-0 -12300-4 0  9999,2 49760  53.2162 159.3809 0001101  94.2912 265.8206 15.08834311 90835,6917.898,95.438,540.524,539.001,0.0
49760.0,STARLINK-3199,PAYLOAD,2023-07-17 07:48:34,15.08840449,0.0001103,53.2165,157.2993,93.6234,266.4884,4.0645e-05,3.59e-06,0.0,0 STARLINK-3199,1 49760U 21115AN  23198.32540017  .00000359  00000-0  40645-4 0  9991,2 49760  53.2165 157.2993 0001103  93.6234 266.4884 15.08840449 90907,6917.879,95.438,540.507,538.981,0.0
49760.0,STARLINK-3199,PAYLOAD,2023-07-19 02:43:59,15.08839542,0.0001284,53.2173,149.2696,93.4308,266.6831,5.4947e-05,5.87e-06,0.0,0 STARLINK-3199,1 49760U 21115AN  23200.11388346  .00000587  00000-0  54947-4 0  9990,2 49760  53.2173 149.2696 0001284  93.4308 266.6831 15.08839542 91173,6917.882,95.438,540.635,538.859,0.0
49760.0,STARLINK-3199,PAYLOAD,2023-07-20 20:04:01,15.08836907,0.0001235,53.2172,141.5396,93.0378,267.0755,3.2816e-05,2.34e-06,0.0,0 STARLINK-3199,1 49760U 21115AN  23201.83612632  .00000234  00000-0  32816-4 0  9998,2 49760  53.2172 141.5396 0001235  93.0378 267.0755 15.08836907 91434,6917.89,95.438,540.609,538.9,0.0
49760.0,STARLINK-3199,PAYLOAD,2023-07-21 05:36:19,15.08844308,0.0001339,53.2176,139.7564,100.6849,259.4294,6.3457e-05,7.22e-06,0.0,0 STARLINK-3199,1 49760U 21115AN  23202.23356040  .00000722  00000-0  63457-4 0  9998,2 49760  53.2176 139.7564 0001339 100.6849 259.4294 15.08844308 91490,6917.867,95.437,540.659,538.806,0.0
49760.0,STARLINK-3199,PAYLOAD,2023-07-24 05:08:41,15.08835105,0.0001217,53.2173,126.3741,98.7304,261.3826,-3.9318e-05,-9.13e-06,0.0,0 STARLINK-3199,1 49760U 21115AN  23205.21437346 -.00000913  00000-0 -39318-4 0  9991,2 49760  53.2173 126.3741 0001217  98.7304 261.3826 15.08835105 90839,6917.895,95.438,540.602,538.918,0.0
49760.0,STARLINK-3199,PAYLOAD,2023-07-25 04:59:26,15.08861295,0.0001202,53.2182,121.9127,113.5962,246.5156,0.00015892,2.244e-05,0.0,0 STARLINK-3199,1 49760U 21115AN  23206.20794860  .00002244  00000-0  15892-3 0  9995,2 49760  53.2182 121.9127 0001202 113.5962 246.5156 15.08861295 90984,6917.815,95.436,540.512,538.849,0.0
49760.0,STARLINK-3199,PAYLOAD,2023-07-26 01:39:28,15.08865906,9.69e-05,53.2155,118.0481,138.9565,221.15,-0.00048537,-8.009e-05,0.0,0 STARLINK-3199,1 49760U 21115AN  23207.06908410 -.00008009  00000-0 -48537-3 0  9997,2 49760  53.2155 118.0481 0000969 138.9565 221.1500 15.08865906 91114,6917.801,95.436,540.337,538.996,0.0
49760.0,STARLINK-3199,PAYLOAD,2023-07-26 17:33:20,15.08841162,6.69e-05,53.2165,115.0728,107.5047,252.6018,1.5009e-05,-4.9e-07,0.0,0 STARLINK-3199,1 49760U 21115AN  23207.73149074 -.00000049  00000-0  15009-4 0  9998,2 49760  53.2165 115.0728 0000669 107.5047 252.6018 15.08841162 92325,6917.877,95.437,540.205,539.279,0.0
49760.0,STARLINK-3199,PAYLOAD,2023-07-26 23:54:52,15.08850943,6.1e-05,53.216,113.885,63.2247,296.8807,-4.0789e-06,-3.53e-06,0.0,0 STARLINK-3199,1 49760U 21115AN  23207.99644534 -.00000353  00000-0 -40789-5 0  9990,2 49760  53.2160 113.8850 0000610  63.2247 296.8807 15.08850943 92365,6917.847,95.437,540.134,539.29,0.0
49760.0,STARLINK-3199,PAYLOAD,2023-07-27 23:45:41,15.08832165,7.33e-05,53.2157,109.4247,79.3254,280.7821,0.00013321,1.833e-05,0.0,0 STARLINK-3199,1 49760U 21115AN  23208.99005838  .00001833  00000-0  13321-3 0  9991,2 49760  53.2157 109.4247 0000733  79.3254 280.7821 15.08832165 92515,6917.904,95.438,540.276,539.262,0.0
49760.0,STARLINK-3199,PAYLOAD,2023-07-28 23:36:28,15.08842637,8.3e-05,53.2163,104.9641,88.5784,271.5303,0.0002152,3.139e-05,0.0,0 STARLINK-3199,1 49760U 21115AN  23209.98365762  .00003139  00000-0  21520-3 0  9997,2 49760  53.2163 104.9641 0000830  88.5784 271.5303 15.08842637 92662,6917.872,95.437,540.312,539.163,0.0
49760.0,STARLINK-3199,PAYLOAD,2023-07-30 02:38:00,15.08857513,9.41e-05,53.2167,99.9083,95.3704,264.7396,0.00044431,6.794e-05,0.0,0 STARLINK-3199,1 49760U 21115AN  23211.10973110  .00006794  00000-0  44431-3 0  9992,2 49760  53.2167  99.9083 0000941  95.3704 264.7396 15.08857513 92834,6917.827,95.436,540.343,539.041,0.0
49760.0,STARLINK-3199,PAYLOAD,2023-07-30 16:56:29,15.08845175,9.06e-05,53.2161,97.2271,110.2824,249.8265,7.4348e-05,8.96e-06,0.0,0 STARLINK-3199,1 49760U 21115AN  23211.70589297  .00000896  00000-0  74348-4 0  9995,2 49760  53.2161  97.2271 0000906 110.2824 249.8265 15.08845175 92929,6917.865,95.437,540.356,539.103,0.0
49760.0,STARLINK-3199,PAYLOAD,2023-07-31 23:08:49,15.08834954,0.0001037,53.2172,91.5821,93.0141,267.097,-0.00010896,-2.021e-05,0.0,0 STARLINK-3199,1 49760U 21115AN  23212.96445765 -.00002021  00000-0 -10896-3 0  9996,2 49760  53.2172  91.5821 0001037  93.0141 267.0970 15.08834954 93115,6917.896,95.438,540.478,539.043,0.0
49760.0,STARLINK-3199,PAYLOAD,2023-08-01 22:59:35,15.08845184,0.0001104,53.2175,87.1216,103.3437,256.7679,0.00014512,2.023e-05,0.0,0 STARLINK-3199,1 49760U 21115AN  23213.95805517  .00002023  00000-0  14512-3 0  9990,2 49760  53.2175  87.1216 0001104 103.3437 256.7679 15.08845184 93269,6917.865,95.437,540.493,538.966,0.0
49760.0,STARLINK-3199,PAYLOAD,2023-08-02 08:31:54,15.0884122,0.0001018,53.2171,85.3402,103.1345,256.9761,7.7577e-05,9.47e-06,0.0,0 STARLINK-3199,1 49760U 21115AN  23214.35549740  .00000947  00000-0  77577-4 0  9992,2 49760  53.2171  85.3402 0001018 103.1345 256.9761 15.08841220 93320,6917.877,95.437,540.446,539.037,0.0
49760.0,STARLINK-3199,PAYLOAD,2023-08-03 09:58:05,15.08836674,9.55e-05,53.2159,80.5809,96.2109,263.8992,4.758e-05,4.7e-06,0.0,0 STARLINK-3199,1 49760U 21115AN  23215.41534113  .00000470  00000-0  47580-4 0  9990,2 49760  53.2159  80.5809 0000955  96.2109 263.8992 15.08836674 93480,6917.891,95.438,540.416,539.095,0.0
49760.0,STARLINK-3199,PAYLOAD,2023-08-04 14:35:02,15.08840222,8.11e-05,53.2159,75.2266,102.6482,257.4601,0.00014239,1.979e-05,0.0,0 STARLINK-3199,1 49760U 21115AN  23216.60766314  .00001979  00000-0  14239-3 0  9991,2 49760  53.2159  75.2266 0000811 102.6482 257.4601 15.08840222 93665,6917.88,95.438,540.306,539.184,0.0
49760.0,STARLINK-3199,PAYLOAD,2023-08-04 20:56:34,15.08849018,8.1e-05,53.2155,74.0373,106.1157,253.9924,0.00031731,4.767e-05,0.0,0 STARLINK-3199,1 49760U 21115AN  23216.87262000  .00004767  00000-0  31731-3 0  9997,2 49760  53.2155  74.0373 0000810 106.1157 253.9924 15.08849018 93700,6917.853,95.437,540.278,539.157,0.0
49760.0,STARLINK-3199,PAYLOAD,2023-08-05 19:11:58,15.08853165,8.63e-05,53.2156,69.8747,79.7246,280.3843,0.00037624,5.707e-05,0.0,0 STARLINK-3199,1 49760U 21115AN  23217.79997807  .00005707  00000-0  37624-3 0  9991,2 49760  53.2156  69.8747 0000863  79.7246 280.3843 15.08853165 93847,6917.84,95.437,540.302,539.108,0.0
